IRIDIUM 112             
1 41925U 17003J   25066.52169321  .00000378  00000+0  12785-3 0  9993
2 41925  86.3919 283.2972 0002131  92.0023 268.1417 14.34218130426384
IRIDIUM 111             
1 41926U 17003K   25066.50900749  .00000015  00000+0 -16712-5 0  9994
2 41926  86.3920 283.3630 0002133  85.1589 274.9850 14.34218320426366
IRIDIUM 113             
1 42803U 17039A   25066.34943530  .00000288  00000+0  95861-4 0  9997
2 42803  86.4037 157.3004 0002459 105.2740 254.8728 14.34219314404271
IRIDIUM 123             
1 42804U 17039B   25066.39091388  .00000192  00000+0  61623-4 0  9991
2 42804  86.4038 188.6978 0002175  89.5155 270.6290 14.34218596403044
IRIDIUM 120             
1 42805U 17039C   25066.34309352  .00000527  00000+0  18098-3 0  9999
2 42805  86.4026 157.1462 0001934  90.8736 269.2681 14.34216873404262
IRIDIUM 115             
1 42806U 17039D   25066.24470419  .00000300  00000+0  83087-4 0  9992
2 42806  86.4564 157.2511 0002574  81.8351 278.3141 14.43272942406915
IRIDIUM 118             
1 42807U 17039E   25066.42262678  .00000421  00000+0  14317-3 0  9992
2 42807  86.4037 188.6850 0002111 100.1382 260.0052 14.34219617403041
IRIDIUM 117             
1 42808U 17039F   25066.37188513  .00000483  00000+0  16533-3 0  9992
2 42808  86.4038 188.6681 0002273  89.2991 270.8465 14.34218120403064
